{"fetched_at":"2026-07-21T17:53:47.972Z","source":"https://celestrak.org/NORAD/elements/gp.php?NAME=SENTINEL&FORMAT=JSON","constellation":"sentinel-5p","records":[{"OBJECT_NAME":"SENTINEL-5P","OBJECT_ID":"2017-064A","EPOCH":"2026-07-21T05:55:02.339040","CLASSIFICATION_TYPE":"U","MEAN_MOTION":14.19523981,"ECCENTRICITY":0.00011925,"INCLINATION":98.7929,"RA_OF_ASC_NODE":144.1371,"ARG_OF_PERICENTER":92.3814,"MEAN_ANOMALY":267.7498,"EPHEMERIS_TYPE":0,"NORAD_CAT_ID":42969,"ELEMENT_SET_NO":999,"REV_AT_EPOCH":45439,"BSTAR":0.000033682948,"MEAN_MOTION_DOT":2.7e-7,"MEAN_MOTION_DDOT":0}]}
